[{"OBJECT_NAME":"TIANMU-1 19","OBJECT_ID":"2023-208A","EPOCH":"2026-03-09T22:13:36.801696","MEAN_MOTION":15.2984143,"ECCENTRICITY":0.00039292,"INCLINATION":97.4383,"RA_OF_ASC_NODE":184.9132,"ARG_OF_PERICENTER":316.2611,"MEAN_ANOMALY":43.8317,"EPHEMERIS_TYPE":0,"CLASSIFICATION_TYPE":"U","NORAD_CAT_ID":58660,"ELEMENT_SET_NO":999,"REV_AT_EPOCH":12214,"BSTAR":0.00040995676,"MEAN_MOTION_DOT":0.00011779,"MEAN_MOTION_DDOT":0},{"OBJECT_NAME":"STARLINK-35196","OBJECT_ID":"2025-232C","EPOCH":"2026-03-09T19:01:11.792640","MEAN_MOTION":15.30200138,"ECCENTRICITY":0.00015024,"INCLINATION":53.1586,"RA_OF_ASC_NODE":103.2665,"ARG_OF_PERICENTER":80.3479,"MEAN_ANOMALY":279.7692,"EPHEMERIS_TYPE":0,"CLASSIFICATION_TYPE":"U","NORAD_CAT_ID":66007,"ELEMENT_SET_NO":999,"REV_AT_EPOCH":2344,"BSTAR":0.00068743118,"MEAN_MOTION_DOT":0.00020056,"MEAN_MOTION_DDOT":0}]
